OBJECT_NAME,OBJECT_ID,EPOCH,MEAN_MOTION,ECCENTRICITY,INCLINATION,RA_OF_ASC_NODE,ARG_OF_PERICENTER,MEAN_ANOMALY,EPHEMERIS_TYPE,CLASSIFICATION_TYPE,NORAD_CAT_ID,ELEMENT_SET_NO,REV_AT_EPOCH,BSTAR,MEAN_MOTION_DOT,MEAN_MOTION_DDOT
H-2A R/B,2006-002B,2026-07-04T09:20:01.157856,15.18310160,.00501684,98.2586,342.7780,202.9119,156.9875,0,U,28932,999,11213,.5649151E-3,.11904E-3,0
RESURS-DK 1,2006-021A,2026-07-04T13:15:21.841632,15.13292377,.00067076,69.9337,294.6009,282.9755,77.0662,0,U,29228,999,10520,.18643362E-3,.322E-4,0
CZ-4B R/B,2006-046C,2026-07-04T09:26:24.621792,15.17914720,.0031601,97.5438,229.9474,220.1962,139.6935,0,U,29507,999,7774,.27042859E-3,.5485E-4,0
CZ-2C R/B,2007-010B,2026-07-04T12:44:49.105824,14.20280207,.00580727,98.4112,293.0350,315.3546,44.2962,0,U,31114,999,99630,.82294802E-4,.137E-5,0
COSMO-SKYMED 1,2007-023A,2026-07-04T13:53:46.234176,14.97186923,.00011613,97.8851,17.5817,83.5997,276.5356,0,U,31598,999,3239,.26666761E-3,.3023E-4,0
COSMOS 2428,2007-029A,2026-07-04T15:07:37.068960,14.12929556,.00071506,70.9380,317.8526,101.6390,258.5534,0,U,31792,999,98061,.90552675E-4,.121E-5,0
SL-16 R/B,2007-029B,2026-07-04T13:29:53.418912,14.14852190,.00023208,70.9763,286.7040,260.4889,110.4732,0,U,31793,999,98190,-.78694871E-4,-.2E-5,0
KORONAS-FOTON,2009-003A,2026-07-04T08:40:19.001856,15.46097341,.00126042,82.4301,154.3389,95.2716,264.9971,0,U,33504,999,96375,.34041214E-3,.16755E-3,0
CZ-2C R/B,2011-030B,2026-07-04T14:56:37.182912,14.81517665,.00515283,97.8663,140.6952,331.3224,202.2500,0,U,37731,999,80740,.22760097E-3,.1771E-4,0
H-2A R/B,2012-025E,2026-07-04T05:10:15.770784,14.95802431,.00422683,98.4838,161.7660,292.0649,67.6083,0,U,38341,999,76563,.3258787E-3,.3631E-4,0
SHIJIAN-16 (SJ-16),2013-057A,2026-07-04T15:59:30.284736,14.92642921,.00162677,74.9740,323.5752,189.9284,170.1586,0,U,39358,999,68895,.11929296E-3,.1203E-4,0
SL-4 R/B,2014-021B,2026-07-04T13:27:14.414400,15.42313928,.00902941,51.6057,125.6377,169.4342,190.8568,0,U,39679,999,67429,.40009514E-3,.19929E-3,0
ALOS-2,2014-029A,2026-07-03T18:38:40.142400,14.79475407,.00016432,97.9231,281.7034,89.0013,271.1387,0,U,39766,999,65403,.20504017E-3,.148E-4,0
YAOGAN-29,2015-069A,2026-07-04T15:38:49.691328,14.83101950,.00016078,98.0016,214.3120,28.9884,331.1418,0,U,41038,999,57321,.12394211E-3,.955E-5,0
ASTRO-H (HITOMI),2016-012A,2026-07-04T14:40:11.537760,15.10599002,.00095545,31.0002,321.6531,68.1911,291.9743,0,U,41337,999,56992,.24629892E-3,.4268E-4,0
HXMT (HUIYAN),2017-034A,2026-07-04T15:08:18.185856,15.18616878,.00328048,43.0141,85.9020,256.4564,103.2629,0,U,42758,999,50031,.33174068E-3,.6852E-4,0
SAOCOM 1A,2018-076A,2026-07-04T14:54:37.569888,14.82163060,.0001555,97.8882,12.1159,81.6991,278.4398,0,U,43641,999,41868,.10758127E-3,.804E-5,0
H-2A R/B,2018-084L,2026-07-04T14:37:38.836128,15.45870427,.00213133,98.8545,68.3133,339.4411,20.5974,0,U,43682,999,42381,.86126947E-3,.42251E-3,0
SAOCOM 1B,2020-059A,2026-07-04T14:02:22.286688,14.82150100,.00015503,97.8886,11.1756,80.2216,279.9172,0,U,46265,999,31606,-.12679504E-4,-.153E-5,0
CSS (TIANHE),2021-035A,2026-07-03T05:28:28.025760,15.57904594,.00028803,41.4672,224.3616,262.1202,97.9309,0,U,48274,999,29621,.10677817E-3,.7882E-4,0
COSMOS 2550,2021-056A,2026-07-03T03:07:36.240384,15.33883607,.0008373,67.1430,51.6786,268.3779,91.6416,0,U,48865,999,28116,.18656E-3,.5961E-4,0
CZ-2C R/B,2022-058K,2026-07-03T23:57:25.197984,15.63075745,.00313408,50.1860,75.9700,336.5094,23.4447,0,U,52794,999,22827,.47352398E-3,.44827E-3,0
CZ-2C R/B,2022-132E,2026-07-04T11:03:36.808416,15.73754604,.00119723,97.2894,193.2816,26.6614,333.5263,0,U,54039,999,20866,.72863048E-3,.103724E-2,0
GSLV R/B,2022-138AN,2026-07-04T13:27:51.079968,14.97345531,.00242165,87.3812,127.1501,86.8647,273.5356,0,U,54149,999,20141,.36484534E-3,.4287E-4,0
XRISM,2023-137A,2026-07-04T13:06:56.336832,15.12620129,.00077765,31.0014,247.1450,139.1383,220.9840,0,U,57800,999,15549,.38160053E-3,.6937E-4,0
ACS3,2024-077B,2026-07-04T11:56:32.748000,13.95037789,.01104579,97.1714,100.4399,48.2096,312.8445,0,U,59588,999,11045,.70127952E-1,.100638E-2,0
SPACEMOBILE-003,2024-163A,2026-06-26T19:29:47.816736,15.20822722,.0005991,52.9744,265.1828,141.0621,219.0806,0,U,61045,999,9923,.90246E-4,.1689E-4,0
SPACEMOBILE-005,2024-163B,2026-07-04T10:03:05.360256,15.20845724,.00087562,52.9799,230.1368,163.9818,196.1455,0,U,61046,999,10038,.58330684E-3,.12746E-3,0
SPACEMOBILE-001,2024-163C,2026-07-04T10:01:03.647712,15.20841602,.00075516,52.9761,229.8615,159.3409,200.7892,0,U,61047,999,10038,.16129964E-3,.3281E-4,0
SPACEMOBILE-002,2024-163D,2026-07-04T09:38:09.434112,15.20870296,.00070709,52.9739,229.9760,160.7440,199.3822,0,U,61048,999,10038,.53270785E-3,.11615E-3,0
