H-2A R/B                
1 28932U 06002B   26185.38890229  .00011904  00000+0  56492-3 0  9998
2 28932  98.2586 342.7780 0050168 202.9119 156.9875 15.18310160112134
RESURS-DK 1             
1 29228U 06021A   26185.55233613  .00003220  00000+0  18643-3 0  9993
2 29228  69.9337 294.6009 0006707 282.9755  77.0662 15.13292377105206
CZ-4B R/B               
1 29507U 06046C   26185.39334053  .00005485  00000+0  27043-3 0  9991
2 29507  97.5438 229.9474 0031601 220.1962 139.6935 15.17914720 77749
CZ-2C R/B               
1 31114U 07010B   26185.53112391  .00000137  00000+0  82295-4 0  9995
2 31114  98.4112 293.0350 0058072 315.3546  44.2962 14.20280207996308
COSMO-SKYMED 1          
1 31598U 07023A   26185.57900734  .00003023  00000+0  26667-3 0  9992
2 31598  97.8851  17.5817 0001161  83.5997 276.5356 14.97186923 32396
COSMOS 2428             
1 31792U 07029A   26185.63029015  .00000121  00000+0  90553-4 0  9997
2 31792  70.9380 317.8526 0007150 101.6390 258.5534 14.12929556980616
SL-16 R/B               
1 31793U 07029B   26185.56242383 -.00000200  00000+0 -78695-4 0  9998
2 31793  70.9763 286.7040 0002320 260.4889 110.4732 14.14852190981908
KORONAS-FOTON           
1 33504U 09003A   26185.36133104  .00016755  00000+0  34041-3 0  9998
2 33504  82.4301 154.3389 0012604  95.2716 264.9971 15.46097341963759
CZ-2C R/B               
1 37731U 11030B   26185.62265258  .00001771  00000+0  22760-3 0  9999
2 37731  97.8663 140.6952 0051528 331.3224 202.2500 14.81517665807402
H-2A R/B                
1 38341U 12025E   26185.21546031  .00003631  00000+0  32588-3 0  9994
2 38341  98.4838 161.7660 0042268 292.0649  67.6083 14.95802431765636
SHIJIAN-16 (SJ-16)      
1 39358U 13057A   26185.66632274  .00001203  00000+0  11929-3 0  9992
2 39358  74.9740 323.5752 0016267 189.9284 170.1586 14.92642921688955
SL-4 R/B                
1 39679U 14021B   26185.56058350  .00019929  00000+0  40010-3 0  9993
2 39679  51.6057 125.6377 0090294 169.4342 190.8568 15.42313928674297
ALOS-2                  
1 39766U 14029A   26184.77685350  .00001480  00000+0  20504-3 0  9995
2 39766  97.9231 281.7034 0001643  89.0013 271.1387 14.79475407654039
YAOGAN-29               
1 41038U 15069A   26185.65196402  .00000955  00000+0  12394-3 0  9992
2 41038  98.0016 214.3120 0001607  28.9884 331.1418 14.83101950573219
ASTRO-H (HITOMI)        
1 41337U 16012A   26185.61124465  .00004268  00000+0  24630-3 0  9996
2 41337  31.0002 321.6531 0009554  68.1911 291.9743 15.10599002569924
HXMT (HUIYAN)           
1 42758U 17034A   26185.63076604  .00006852  00000+0  33174-3 0  9996
2 42758  43.0141  85.9020 0032804 256.4564 103.2629 15.18616878500317
SAOCOM 1A               
1 43641U 18076A   26185.62126817  .00000804  00000+0  10758-3 0  9990
2 43641  97.8882  12.1159 0001555  81.6991 278.4398 14.82163060418680
H-2A R/B                
1 43682U 18084L   26185.60947727  .00042251  00000+0  86127-3 0  9998
2 43682  98.8545  68.3133 0021313 339.4411  20.5974 15.45870427423811
SAOCOM 1B               
1 46265U 20059A   26185.58498017 -.00000153  00000+0 -12680-4 0  9994
2 46265  97.8886  11.1756 0001550  80.2216 279.9172 14.82150100316067
CSS (TIANHE)            
1 48274U 21035A   26184.22810215  .00007882  00000+0  10678-3 0  9997
2 48274  41.4672 224.3616 0002880 262.1202  97.9309 15.57904594296214
COSMOS 2550             
1 48865U 21056A   26184.13028056  .00005961  00000+0  18656-3 0  9990
2 48865  67.1430  51.6786 0008372 268.3779  91.6416 15.33883607281168
CZ-2C R/B               
1 52794U 22058K   26184.99820831  .00044827  00000+0  47352-3 0  9993
2 52794  50.1860  75.9700 0031340 336.5094  23.4447 15.63075745228276
CZ-2C R/B               
1 54039U 22132E   26185.46084269  .00103724  00000+0  72863-3 0  9997
2 54039  97.2894 193.2816 0011972  26.6614 333.5263 15.73754604208666
GSLV R/B                
1 54149U 22138AN  26185.56100787  .00004287  00000+0  36485-3 0  9994
2 54149  87.3812 127.1501 0024216  86.8647 273.5356 14.97345531201416
XRISM                   
1 57800U 23137A   26185.54648538  .00006937  00000+0  38160-3 0  9996
2 57800  31.0014 247.1450 0007776 139.1383 220.9840 15.12620129155497
ACS3                    
1 59588U 24077B   26185.49760125  .00100638  00000+0  70128-1 0  9997
2 59588  97.1714 100.4399 0110457  48.2096 312.8445 13.95037789110459
SPACEMOBILE-003         
1 61045U 24163A   26177.81235899  .00001689  00000+0  90246-4 0  9998
2 61045  52.9744 265.1828 0005991 141.0621 219.0806 15.20822722 99230
SPACEMOBILE-005         
1 61046U 24163B   26185.41881204  .00012746  00000+0  58331-3 0  9995
2 61046  52.9799 230.1368 0008756 163.9818 196.1455 15.20845724100386
SPACEMOBILE-001         
1 61047U 24163C   26185.41740333  .00003281  00000+0  16130-3 0  9998
2 61047  52.9761 229.8615 0007551 159.3409 200.7892 15.20841602100381
SPACEMOBILE-002         
1 61048U 24163D   26185.40149808  .00011615  00000+0  53271-3 0  9995
2 61048  52.9739 229.9760 0007070 160.7440 199.3822 15.20870296100383
